[{"OBJECT_NAME":"ONEWEB-0597","OBJECT_ID":"2022-166X","EPOCH":"2026-03-03T23:51:10.480320","MEAN_MOTION":13.21825741,"ECCENTRICITY":0.0001487,"INCLINATION":87.9165,"RA_OF_ASC_NODE":264.9688,"ARG_OF_PERICENTER":86.6453,"MEAN_ANOMALY":273.4851,"EPHEMERIS_TYPE":0,"CLASSIFICATION_TYPE":"U","NORAD_CAT_ID":54663,"ELEMENT_SET_NO":999,"REV_AT_EPOCH":15764,"BSTAR":0.00010004,"MEAN_MOTION_DOT":5.4e-7,"MEAN_MOTION_DDOT":0},{"OBJECT_NAME":"ONEWEB-0600","OBJECT_ID":"2022-166Y","EPOCH":"2026-03-04T12:08:06.344736","MEAN_MOTION":13.21825314,"ECCENTRICITY":0.0001436,"INCLINATION":87.9163,"RA_OF_ASC_NODE":264.8572,"ARG_OF_PERICENTER":99.1093,"MEAN_ANOMALY":261.0204,"EPHEMERIS_TYPE":0,"CLASSIFICATION_TYPE":"U","NORAD_CAT_ID":54664,"ELEMENT_SET_NO":999,"REV_AT_EPOCH":15768,"BSTAR":-0.00080216,"MEAN_MOTION_DOT":-3.18e-6,"MEAN_MOTION_DDOT":0},{"OBJECT_NAME":"ONEWEB-0601","OBJECT_ID":"2022-166Z","EPOCH":"2026-03-04T11:56:17.012832","MEAN_MOTION":13.21825718,"ECCENTRICITY":0.0001332,"INCLINATION":87.9167,"RA_OF_ASC_NODE":264.876,"ARG_OF_PERICENTER":85.0168,"MEAN_ANOMALY":275.1117,"EPHEMERIS_TYPE":0,"CLASSIFICATION_TYPE":"U","NORAD_CAT_ID":54665,"ELEMENT_SET_NO":999,"REV_AT_EPOCH":15787,"BSTAR":5.9443e-5,"MEAN_MOTION_DOT":3.8e-7,"MEAN_MOTION_DDOT":0},{"OBJECT_NAME":"ONEWEB-0602","OBJECT_ID":"2022-166AA","EPOCH":"2026-03-04T11:05:18.805344","MEAN_MOTION":13.21826997,"ECCENTRICITY":0.0001386,"INCLINATION":87.9166,"RA_OF_ASC_NODE":264.8887,"ARG_OF_PERICENTER":99.2987,"MEAN_ANOMALY":260.8304,"EPHEMERIS_TYPE":0,"CLASSIFICATION_TYPE":"U","NORAD_CAT_ID":54666,"ELEMENT_SET_NO":999,"REV_AT_EPOCH":15771,"BSTAR":-4.0628e-6,"MEAN_MOTION_DOT":1.1e-7,"MEAN_MOTION_DDOT":0},{"OBJECT_NAME":"ONEWEB-0603","OBJECT_ID":"2022-166AB","EPOCH":"2026-03-04T11:13:36.011424","MEAN_MOTION":13.2182752,"ECCENTRICITY":0.0001417,"INCLINATION":87.9177,"RA_OF_ASC_NODE":264.8329,"ARG_OF_PERICENTER":86.4039,"MEAN_ANOMALY":273.7257,"EPHEMERIS_TYPE":0,"CLASSIFICATION_TYPE":"U","NORAD_CAT_ID":54667,"ELEMENT_SET_NO":999,"REV_AT_EPOCH":15764,"BSTAR":-3.1972e-6,"MEAN_MOTION_DOT":1.2e-7,"MEAN_MOTION_DDOT":0},{"OBJECT_NAME":"ONEWEB-0604","OBJECT_ID":"2022-166AC","EPOCH":"2026-03-04T12:46:01.167744","MEAN_MOTION":13.21827103,"ECCENTRICITY":0.0001628,"INCLINATION":87.9176,"RA_OF_ASC_NODE":264.8349,"ARG_OF_PERICENTER":93.2675,"MEAN_ANOMALY":266.8645,"EPHEMERIS_TYPE":0,"CLASSIFICATION_TYPE":"U","NORAD_CAT_ID":54668,"ELEMENT_SET_NO":999,"REV_AT_EPOCH":15761,"BSTAR":-6.5281e-5,"MEAN_MOTION_DOT":-1.4e-7,"MEAN_MOTION_DDOT":0},{"OBJECT_NAME":"ONEWEB-0605","OBJECT_ID":"2022-166AD","EPOCH":"2026-03-04T12:36:32.349024","MEAN_MOTION":13.21825378,"ECCENTRICITY":0.0001448,"INCLINATION":87.9163,"RA_OF_ASC_NODE":264.8605,"ARG_OF_PERICENTER":68.4933,"MEAN_ANOMALY":291.6355,"EPHEMERIS_TYPE":0,"CLASSIFICATION_TYPE":"U","NORAD_CAT_ID":54669,"ELEMENT_SET_NO":999,"REV_AT_EPOCH":15768,"BSTAR":-0.00079809,"MEAN_MOTION_DOT":-3.17e-6,"MEAN_MOTION_DDOT":0},{"OBJECT_NAME":"ONEWEB-0606","OBJECT_ID":"2022-166AE","EPOCH":"2026-03-04T11:18:21.955680","MEAN_MOTION":13.21826054,"ECCENTRICITY":0.0001763,"INCLINATION":87.9164,"RA_OF_ASC_NODE":264.8841,"ARG_OF_PERICENTER":89.8976,"MEAN_ANOMALY":270.236,"EPHEMERIS_TYPE":0,"CLASSIFICATION_TYPE":"U","NORAD_CAT_ID":54670,"ELEMENT_SET_NO":999,"REV_AT_EPOCH":15773,"BSTAR":-0.0001595,"MEAN_MOTION_DOT":-5.3e-7,"MEAN_MOTION_DDOT":0},{"OBJECT_NAME":"ONEWEB-0607","OBJECT_ID":"2022-166AF","EPOCH":"2026-03-04T01:25:58.170720","MEAN_MOTION":13.21825731,"ECCENTRICITY":0.0001427,"INCLINATION":87.9172,"RA_OF_ASC_NODE":264.9304,"ARG_OF_PERICENTER":88.715,"MEAN_ANOMALY":271.4148,"EPHEMERIS_TYPE":0,"CLASSIFICATION_TYPE":"U","NORAD_CAT_ID":54671,"ELEMENT_SET_NO":999,"REV_AT_EPOCH":15765,"BSTAR":0.00011321,"MEAN_MOTION_DOT":6.0e-7,"MEAN_MOTION_DDOT":0},{"OBJECT_NAME":"ONEWEB-0608","OBJECT_ID":"2022-166AG","EPOCH":"2026-03-04T12:29:26.342592","MEAN_MOTION":13.2182706,"ECCENTRICITY":0.0001224,"INCLINATION":87.9176,"RA_OF_ASC_NODE":264.8317,"ARG_OF_PERICENTER":74.0351,"MEAN_ANOMALY":286.0918,"EPHEMERIS_TYPE":0,"CLASSIFICATION_TYPE":"U","NORAD_CAT_ID":54672,"ELEMENT_SET_NO":999,"REV_AT_EPOCH":15772,"BSTAR":8.735e-5,"MEAN_MOTION_DOT":4.9e-7,"MEAN_MOTION_DDOT":0},{"OBJECT_NAME":"ONEWEB-0610","OBJECT_ID":"2022-166AH","EPOCH":"2026-03-04T12:00:59.577984","MEAN_MOTION":13.21826386,"ECCENTRICITY":0.0001012,"INCLINATION":87.9164,"RA_OF_ASC_NODE":264.8606,"ARG_OF_PERICENTER":75.946,"MEAN_ANOMALY":284.1787,"EPHEMERIS_TYPE":0,"CLASSIFICATION_TYPE":"U","NORAD_CAT_ID":54673,"ELEMENT_SET_NO":999,"REV_AT_EPOCH":15762,"BSTAR":0.00011937,"MEAN_MOTION_DOT":6.2e-7,"MEAN_MOTION_DDOT":0},{"OBJECT_NAME":"ONEWEB-0611","OBJECT_ID":"2022-166AJ","EPOCH":"2026-03-04T11:51:32.677344","MEAN_MOTION":13.2182769,"ECCENTRICITY":0.0001713,"INCLINATION":87.9165,"RA_OF_ASC_NODE":264.8585,"ARG_OF_PERICENTER":95.3354,"MEAN_ANOMALY":264.7975,"EPHEMERIS_TYPE":0,"CLASSIFICATION_TYPE":"U","NORAD_CAT_ID":54674,"ELEMENT_SET_NO":999,"REV_AT_EPOCH":15761,"BSTAR":3.9829e-5,"MEAN_MOTION_DOT":2.9e-7,"MEAN_MOTION_DDOT":0},{"OBJECT_NAME":"ONEWEB-0612","OBJECT_ID":"2022-166AK","EPOCH":"2026-03-04T12:10:30.448704","MEAN_MOTION":13.21826558,"ECCENTRICITY":0.0001444,"INCLINATION":87.9176,"RA_OF_ASC_NODE":264.8394,"ARG_OF_PERICENTER":88.8433,"MEAN_ANOMALY":271.2866,"EPHEMERIS_TYPE":0,"CLASSIFICATION_TYPE":"U","NORAD_CAT_ID":54675,"ELEMENT_SET_NO":999,"REV_AT_EPOCH":15760,"BSTAR":0.00029974,"MEAN_MOTION_DOT":1.37e-6,"MEAN_MOTION_DDOT":0},{"OBJECT_NAME":"ONEWEB-0615","OBJECT_ID":"2022-166AL","EPOCH":"2026-03-04T11:42:03.932064","MEAN_MOTION":13.21825983,"ECCENTRICITY":0.0001551,"INCLINATION":87.9165,"RA_OF_ASC_NODE":264.8675,"ARG_OF_PERICENTER":90.3315,"MEAN_ANOMALY":269.7996,"EPHEMERIS_TYPE":0,"CLASSIFICATION_TYPE":"U","NORAD_CAT_ID":54676,"ELEMENT_SET_NO":999,"REV_AT_EPOCH":15761,"BSTAR":9.6454e-5,"MEAN_MOTION_DOT":5.3e-7,"MEAN_MOTION_DDOT":0},{"OBJECT_NAME":"ONEWEB-0655","OBJECT_ID":"2022-166AM","EPOCH":"2026-03-04T11:06:31.238784","MEAN_MOTION":13.21826048,"ECCENTRICITY":0.000136,"INCLINATION":87.9164,"RA_OF_ASC_NODE":264.8753,"ARG_OF_PERICENTER":96.0801,"MEAN_ANOMALY":264.0488,"EPHEMERIS_TYPE":0,"CLASSIFICATION_TYPE":"U","NORAD_CAT_ID":54677,"ELEMENT_SET_NO":999,"REV_AT_EPOCH":15760,"BSTAR":8.2155e-5,"MEAN_MOTION_DOT":4.7e-7,"MEAN_MOTION_DDOT":0},{"OBJECT_NAME":"ONEWEB-0659","OBJECT_ID":"2022-166AN","EPOCH":"2026-03-04T11:30:12.330432","MEAN_MOTION":13.21827085,"ECCENTRICITY":0.0001684,"INCLINATION":87.9163,"RA_OF_ASC_NODE":264.872,"ARG_OF_PERICENTER":89.6851,"MEAN_ANOMALY":270.4476,"EPHEMERIS_TYPE":0,"CLASSIFICATION_TYPE":"U","NORAD_CAT_ID":54678,"ELEMENT_SET_NO":999,"REV_AT_EPOCH":15769,"BSTAR":-2.4072e-5,"MEAN_MOTION_DOT":3.0e-8,"MEAN_MOTION_DDOT":0},{"OBJECT_NAME":"ONEWEB-0685","OBJECT_ID":"2022-166AP","EPOCH":"2026-03-04T11:30:42.861600","MEAN_MOTION":13.21812682,"ECCENTRICITY":0.0001398,"INCLINATION":87.9159,"RA_OF_ASC_NODE":264.8674,"ARG_OF_PERICENTER":90.1515,"MEAN_ANOMALY":269.9779,"EPHEMERIS_TYPE":0,"CLASSIFICATION_TYPE":"U","NORAD_CAT_ID":54679,"ELEMENT_SET_NO":999,"REV_AT_EPOCH":15758,"BSTAR":-8.9724e-5,"MEAN_MOTION_DOT":-2.4e-7,"MEAN_MOTION_DDOT":0},{"OBJECT_NAME":"ONEWEB-0712","OBJECT_ID":"2022-166AQ","EPOCH":"2026-03-04T11:43:00.405696","MEAN_MOTION":13.16593703,"ECCENTRICITY":0.0001407,"INCLINATION":87.9002,"RA_OF_ASC_NODE":249.6005,"ARG_OF_PERICENTER":113.3902,"MEAN_ANOMALY":246.7377,"EPHEMERIS_TYPE":0,"CLASSIFICATION_TYPE":"U","NORAD_CAT_ID":54680,"ELEMENT_SET_NO":999,"REV_AT_EPOCH":15828,"BSTAR":0.0001136,"MEAN_MOTION_DOT":5.6e-7,"MEAN_MOTION_DDOT":0},{"OBJECT_NAME":"ONEWEB-0714","OBJECT_ID":"2022-166AR","EPOCH":"2026-03-04T11:39:40.293792","MEAN_MOTION":13.2182493,"ECCENTRICITY":0.0001382,"INCLINATION":87.9164,"RA_OF_ASC_NODE":264.8606,"ARG_OF_PERICENTER":93.6849,"MEAN_ANOMALY":266.4443,"EPHEMERIS_TYPE":0,"CLASSIFICATION_TYPE":"U","NORAD_CAT_ID":54681,"ELEMENT_SET_NO":999,"REV_AT_EPOCH":15770,"BSTAR":-0.00038226,"MEAN_MOTION_DOT":-1.45e-6,"MEAN_MOTION_DDOT":0},{"OBJECT_NAME":"ONEWEB-0532","OBJECT_ID":"2023-004A","EPOCH":"2026-03-04T09:26:21.873408","MEAN_MOTION":13.17649501,"ECCENTRICITY":0.0002014,"INCLINATION":87.9151,"RA_OF_ASC_NODE":26.6727,"ARG_OF_PERICENTER":71.0004,"MEAN_ANOMALY":289.1345,"EPHEMERIS_TYPE":0,"CLASSIFICATION_TYPE":"U","NORAD_CAT_ID":55140,"ELEMENT_SET_NO":999,"REV_AT_EPOCH":15378,"BSTAR":4.2979e-5,"MEAN_MOTION_DOT":3.0e-7,"MEAN_MOTION_DDOT":0},{"OBJECT_NAME":"ONEWEB-0533","OBJECT_ID":"2023-004B","EPOCH":"2026-03-04T07:49:57.357984","MEAN_MOTION":13.12441147,"ECCENTRICITY":0.0001633,"INCLINATION":87.8999,"RA_OF_ASC_NODE":11.4778,"ARG_OF_PERICENTER":76.4784,"MEAN_ANOMALY":283.6526,"EPHEMERIS_TYPE":0,"CLASSIFICATION_TYPE":"U","NORAD_CAT_ID":55141,"ELEMENT_SET_NO":999,"REV_AT_EPOCH":15430,"BSTAR":-0.00032832,"MEAN_MOTION_DOT":-1.05e-6,"MEAN_MOTION_DDOT":0},{"OBJECT_NAME":"ONEWEB-0541","OBJECT_ID":"2023-004C","EPOCH":"2026-03-04T10:14:37.846752","MEAN_MOTION":13.11417091,"ECCENTRICITY":0.0001993,"INCLINATION":87.886,"RA_OF_ASC_NODE":41.8814,"ARG_OF_PERICENTER":83.386,"MEAN_ANOMALY":276.7495,"EPHEMERIS_TYPE":0,"CLASSIFICATION_TYPE":"U","NORAD_CAT_ID":55142,"ELEMENT_SET_NO":999,"REV_AT_EPOCH":15221,"BSTAR":-0.0015688,"MEAN_MOTION_DOT":-5.43e-6,"MEAN_MOTION_DDOT":0},{"OBJECT_NAME":"ONEWEB-0543","OBJECT_ID":"2023-004D","EPOCH":"2026-03-04T07:15:37.005696","MEAN_MOTION":13.18686831,"ECCENTRICITY":0.0001684,"INCLINATION":87.923,"RA_OF_ASC_NODE":356.3087,"ARG_OF_PERICENTER":88.4303,"MEAN_ANOMALY":271.7021,"EPHEMERIS_TYPE":0,"CLASSIFICATION_TYPE":"U","NORAD_CAT_ID":55143,"ELEMENT_SET_NO":999,"REV_AT_EPOCH":15587,"BSTAR":0.00011342,"MEAN_MOTION_DOT":5.8e-7,"MEAN_MOTION_DDOT":0},{"OBJECT_NAME":"ONEWEB-0544","OBJECT_ID":"2023-004E","EPOCH":"2026-03-04T07:06:06.831360","MEAN_MOTION":13.18686989,"ECCENTRICITY":0.0001993,"INCLINATION":87.924,"RA_OF_ASC_NODE":356.3063,"ARG_OF_PERICENTER":84.8279,"MEAN_ANOMALY":275.3081,"EPHEMERIS_TYPE":0,"CLASSIFICATION_TYPE":"U","NORAD_CAT_ID":55144,"ELEMENT_SET_NO":999,"REV_AT_EPOCH":15587,"BSTAR":7.0507e-5,"MEAN_MOTION_DOT":4.1e-7,"MEAN_MOTION_DDOT":0}]
